2022-088E               
1 53320U 22088E   22227.17828704  .00008389  00000+0  34855-3 0  9990
2 53320  34.9986  20.1092 0004374   8.1473 338.6263 15.23073170  2539
RS4S                    
1 53321U 98067TZ  22226.97273267  .00036079  00000+0  60157-3 0  9997
2 53321  51.6421  45.2470 0002890 124.4303 235.6960 15.51624749  3832
COSMOS 2558             
1 53323U 22089A   22226.89418833  .00011796  00000+0  28610-3 0  9998
2 53323  97.2353 324.9489 0010493 218.2436 141.8067 15.41145779  2013
SL-4 R/B                
1 53324U 22089B   22226.89573610  .00064867  33200-5  35421-3 0  9993
2 53324  97.2543 325.6073 0101963  21.5724 338.9788 15.72663918  2057
2022-090A               
1 53346U 22090A   22227.22685568  .00002469  00000+0  10918-3 0  9993
2 53346  97.4719 299.9810 0010185 216.3136 208.2626 15.22612538  1692
2022-090B               
1 53347U 22090B   22227.22445113  .00007814  00000+0  32896-3 0  9992
2 53347  97.4730 299.9942 0011644 235.5665 209.2240 15.23584731  1689
2022-090C               
1 53348U 22090C   22227.22018867  .00010433  00000+0  43732-3 0  9997
2 53348  97.4713 299.9882 0011224 236.6370 186.0866 15.23646199  1686
CZ-4B R/B               
1 53349U 22090D   22227.27673240  .00050066  28597-5  34805-3 0  9999
2 53349  97.5146 300.7563 0155586 349.2155  10.5741 15.59820415  1741
SBIRS GEO-6 (USA 336)   
1 53355U 22092A   22224.83840060 -.00000131  00000+0  00000+0 0  9991
2 53355   9.0774 311.6932 2016615 177.7256 178.9162  1.34344688   141
ATLAS 5 CENTAUR R/B     
1 53356U 22092B   22226.72466755 -.00000279  00000+0  00000+0 0  9990
2 53356  16.4675 312.4425 5659383 178.3354 185.0053  1.99526192   202
PRC TEST SPACECRAFT2    
1 53357U 22093A   22227.21389653  .00003288  00000+0  71707-4 0  9997
2 53357  49.9926 111.6547 0180723 192.0275 167.6339 15.32150421  1624
CZ-2F R/B               
1 53358U 22093B   22226.82130334  .00008998  00000+0  17739-3 0  9991
2 53358  49.9903 113.6017 0179830 190.2802 169.4459 15.32409624  1554
CZ-2F DEB               
1 53359U 22093C   22226.82509457  .00095512  00000+0  17816-2 0  9991
2 53359  50.3003 114.4036 0236547 206.8757 151.9787 15.23007081  1555
CZ-2F DEB               
1 53360U 22093D   22227.11550581  .00077436  00000+0  15796-2 0  9990
2 53360  50.3328 113.2994 0247881 202.2247 156.7818 15.18888795  1588
CZ-2F DEB               
1 53361U 22093E   22227.14399403  .00064582  00000+0  17237-2 0  9998
2 53361  49.7517 114.8283 0339605 190.4004 168.9786 14.95488767  1571
CZ-2F DEB               
1 53362U 22093F   22227.16648235  .00064526  00000+0  17720-2 0  9996
2 53362  49.8056 114.9665 0352801 187.5571 171.9966 14.92277188  1579
2022-093G               
1 53363U 22093G   22227.18816095  .00307248  00000+0  36192-2 0  9995
2 53363  50.0233 111.3794 0201344 204.2924 154.8384 15.39424386  1625
2022-093H               
1 53364U 22093H   22227.10590911  .00000655  00000+0  67270-4 0  9999
2 53364  50.0290 114.6109 0110514 241.6539 117.3236 15.00024846  1568
DANURI (KPLO)           
1 53365U 22094A   22216.96995833  .00001843 -58274-5  00000+0 0  9991
2 53365  29.5000 147.2458 0003300 140.4700 307.5200 16.09976711    07
2022-095A               
1 53367U 22095A   22227.20146503  .00008998  00000+0  33870-3 0  9995
2 53367  97.4109 301.0700 0080559  56.9625 358.3731 15.24285848   925
2022-095B               
1 53368U 22095B   22227.20598132  .00009120  00000+0  34092-3 0  9990
2 53368  97.4103 301.0746 0080776  56.2788  28.2071 15.24489166   912
2022-095C               
1 53369U 22095C   22227.20543756  .00004506  00000+0  16961-3 0  9991
2 53369  97.4103 301.0751 0080358  55.7682  28.7289 15.24599219   919
2022-096A               
1 53370U 22096A   22227.17705394  .00003642  00000+0  15231-3 0  9997
2 53370  97.4355 128.5983 0001610  87.6707  77.2626 15.24227597   916
2022-096B               
1 53371U 22096B   22227.10111457  .00005117  00000+0  21187-3 0  9998
2 53371  97.4384 128.5252 0002609 123.6159 347.6634 15.24371269   907
2022-096C               
1 53372U 22096C   22227.03837860  .00004727  00000+0  19589-3 0  9993
2 53372  97.4378 128.4639 0002539 117.4381  10.0583 15.24381847   872
RS29S (SXC3-2110 CYCLO*)
1 53373U 22096D   22227.10009707  .00006982  00000+0  28710-3 0  9994
2 53373  97.4377 128.5257 0002844 122.1236 345.4298 15.24471143   888
RS32S (SXC3-212 MONITO*)
1 53374U 22096E   22227.03771279  .00006983  00000+0  28629-3 0  9997
2 53374  97.4387 128.4664 0002962 114.7035  12.8275 15.24573392   874
RS34S (SXC3-218 KUZBAS*)
1 53375U 22096F   22227.24042962  .00006361  00000+0  26086-3 0  9996
2 53375  97.4379 128.6653 0003142 118.2479  41.7666 15.24600195   909
RS23S (SXC3-21 UTMN)    
1 53376U 22096G   22227.23369764  .00006438  00000+0  26373-3 0  9992
2 53376  97.4376 128.6592 0003140 117.6261   6.1411 15.24632173   903
RS28S (SXC3-214 MIET-A*)
1 53377U 22096H   22227.17580920  .00005927  00000+0  24281-3 0  9993
2 53377  97.4380 128.6016 0003110 112.2095  54.7175 15.24661042   894
RS26S (KAI-1)           
1 53378U 22096J   22227.09919873  .00005600  00000+0  22933-3 0  9998
2 53378  97.4378 128.5258 0003295 109.7894 357.8014 15.24700766   886
2022-096K               
1 53379U 22096K   22227.23127325  .00005162  00000+0  20963-3 0  9992
2 53379  97.4376 128.6609 0005755  76.2371  42.5055 15.25010423   908
2022-096L               
1 53380U 22096L   22227.17303275  .00005083  00000+0  20643-3 0  9994
2 53380  97.4379 128.6032 0005843  77.9425  81.4458 15.25018048   897
RS19S (SXC3-219 ISOI)   
1 53381U 22096M   22227.23811627  .00006342  00000+0  25613-3 0  9998
2 53381  97.4375 128.6673 0006092  76.7943  81.3141 15.25102779   909
RS8S (SXC3-2111 RESHUC*)
1 53382U 22096N   22227.17229425  .00006163  00000+0  24895-3 0  9993
2 53382  97.4379 128.6020 0006173  76.4467  80.6731 15.25108709   892
RS21S (CUBESX-HSE-2)    
1 53383U 22096P   22227.17244920  .00006104  00000+0  24620-3 0  9992
2 53383  97.4378 128.6027 0006387  75.0237  84.1075 15.25163368   898
RS30S (SXC3-217 SIREN)  
1 53384U 22096Q   22227.16953309  .00005629  00000+0  22712-3 0  9991
2 53384  97.4377 128.6011 0006349  74.4209  69.2526 15.25186123   890
RS20S (GEOSCAN-EDELVEIS)
1 53385U 22096R   22227.16816869  .00007062  00000+0  28291-3 0  9992
2 53385  97.4376 128.6007 0006917  75.2015  63.8879 15.25331985   923
RS33S (SXC3-215 VIZARD) 
1 53386U 22096S   22227.09617160  .00009089  00000+0  36085-3 0  9999
2 53386  97.4375 128.5318 0007716  74.9226  33.2510 15.25543083   900
2022-095D               
1 53387U 22095D   22227.07632126  .00004841  00000+0  17418-3 0  9996
2 53387  97.4090 300.9484 0085845  52.5512  64.8834 15.25596114   906
2022-098A               
1 53444U 22098A   22227.10957375  .00002854  00000+0  18561-3 0  9995
2 53444  97.5305 323.3675 0010638 234.0939 245.7112 15.08742065   749
2022-098B               
1 53445U 22098B   22223.92819249 -.01098732  00000+0 -74196-1 0  9996
2 53445  97.6279 320.2350 0032853 313.9697 185.4835 15.08922292   247
2022-098C               
1 53446U 22098C   22227.10937815  .00003003  00000+0  19453-3 0  9992
2 53446  97.5354 323.3740 0010639 238.4344 242.2886 15.08854575   725
2022-098D               
1 53447U 22098D   22227.22953475  .00003084  00000+0  19890-3 0  9990
2 53447  97.5266 323.4845 0010075 240.3605 175.2286 15.09000373   742
2022-098E               
1 53448U 22098E   22227.22969296  .00003265  00000+0  20923-3 0  9999
2 53448  97.5338 323.4924 0010559 246.6593 173.0976 15.09184008   743
2022-098F               
1 53449U 22098F   22227.22869120  .00003191  00000+0  20414-3 0  9998
2 53449  97.5285 323.4875 0010178 248.1624 167.7383 15.09271945   748
2022-098G               
1 53450U 22098G   22227.22825429  .00003084  00000+0  19646-3 0  9990
2 53450  97.5336 323.4931 0007572 249.1739 167.9584 15.09472908   749
2022-098H               
1 53451U 22098H   22227.10705127  .00003143  00000+0  19970-3 0  9996
2 53451  97.5379 323.3780 0008315 253.8213 226.4767 15.09550188   722
2022-098J               
1 53452U 22098J   22227.22725455  .00003342  00000+0  21150-3 0  9990
2 53452  97.5286 323.4888 0008268 256.3039 158.4731 15.09644423   744
2022-098K               
1 53453U 22098K   22227.10650758  .00003194  00000+0  20185-3 0  9993
2 53453  97.5333 323.3741 0008908 259.8305 220.5832 15.09724687   722
2022-098L               
1 53454U 22098L   22226.84804140 -.00023393  00000+0 -14446-2 0  9997
2 53454  97.5275 323.1139 0010354 266.5524 252.7194 15.09880230   683
2022-098M               
1 53455U 22098M   22226.84811142  .00089982  00000+0  54854-2 0  9999
2 53455  97.5301 323.1212 0010983 264.4827 255.4690 15.09900825   681
2022-098N               
1 53456U 22098N   22227.10576481  .00005234  00000+0  32607-3 0  9995
2 53456  97.5269 323.3694 0010311 266.8993 213.3816 15.09955270   728
2022-098P               
1 53457U 22098P   22227.22557345  .00004955  00000+0  30753-3 0  9996
2 53457  97.5267 323.4883 0009962 270.4077 143.6869 15.10120743   748
2022-098Q               
1 53458U 22098Q   22227.22580360  .00005252  00000+0  32605-3 0  9999
2 53458  97.5314 323.4929 0010141 268.7405 145.8965 15.10081927   740
2022-098R               
1 53459U 22098R   22227.10505880  .00005063  00000+0  31369-3 0  9997
2 53459  97.5298 323.3727 0009820 271.8485 208.3946 15.10170988   720
1998-067UB              
1 53462U 98067UB  22226.74141404  .00026381  00000+0  45171-3 0  9999
2 53462  51.6419  46.4994 0007959 141.3301 313.6344 15.51016320   375
1998-067UC              
1 53463U 98067UC  22226.74417056  .00032628  00000+0  55523-3 0  9992
2 53463  51.6435  46.4830 0007849 138.2377 332.5144 15.51075903   379
1998-067UD              
1 53464U 98067UD  22226.73602287  .00035547  00000+0  60268-3 0  9999
2 53464  51.6409  46.5226 0007902 141.9590 283.7101 15.51135793   373
